STARLINK-2640
1 18438C 21040L   21326.15555279  .00001175  00000-0  78709-4 0  3260
2 18438  53.0560  23.0470 0001275  67.8750 150.9331 15.06409621    19
